*******************************************************************************
JPL/HORIZONS              3620 Platonov (1981 RU2)         2023-Sep-04 11:24:36
Rec #:    3620 (+COV) Soln.date: 2023-Aug-23_12:04:46   # obs: 2845 (1955-2023)
 
IAU76/J2000 helio. ecliptic osc. elements (au, days, deg., period=Julian yrs):
 
  EPOCH=  2457806.5 ! 2017-Feb-22.00 (TDB)         Residual RMS= .26452
   EC= .1121398051021756   QR= 2.654684198538492   TP= 2458216.3309690165
   OM= 272.3543882577269   W=  125.6532575673136   IN= 8.966580314318207
   A= 2.989979969587436    MA= 281.8720501017523   ADIST= 3.32527574063638
   PER= 5.17024            N= .190634568           ANGMOM= .029557491
   DAN= 3.15885            DDN= 2.77124            L= 38.3419649
   B= 7.2757129            MOID= 1.67425001        TP= 2018-Apr-07.8309690165
 
Asteroid physical parameters (km, seconds, rotational period in hours):
   GM= n.a.                RAD= 6.3385             ROTPER= n.a.
   H= 12.59                G= .150                 B-V= n.a.
                           ALBEDO= .145            STYP= n.a.

ASTEROID comments: 
1: soln ref.= JPL#46, OCC=0
2: source=ORB
*******************************************************************************


*******************************************************************************
Ephemeris / API_USER Mon Sep  4 11:24:36 2023 Pasadena, USA      / Horizons
*******************************************************************************
Target body name: 3620 Platonov (1981 RU2)        {source: JPL#46}
Center body name: Solar System Barycenter (0)     {source: DE441}
Center-site name: BODY CENTER
*******************************************************************************
Start time      : A.D. 2023-Aug-12 00:00:00.0000 TDB
Stop  time      : A.D. 2023-Aug-13 00:00:00.0000 TDB
Step-size       : 2880 minutes
*******************************************************************************
Center geodetic : 0.0, 0.0, 0.0                   {E-lon(deg),Lat(deg),Alt(km)}
Center cylindric: 0.0, 0.0, 0.0                   {E-lon(deg),Dxy(km),Dz(km)}
Center radii    : (undefined)
Small perturbers: Yes                             {source: SB441-N16}
Output units    : KM-S
Calendar mode   : Mixed Julian/Gregorian
Output type     : GEOMETRIC cartesian states
Output format   : 2 (position and velocity)
Reference frame : Ecliptic of J2000.0
*******************************************************************************
Initial IAU76/J2000 heliocentric ecliptic osculating elements (au, days, deg.):
  EPOCH=  2457806.5 ! 2017-Feb-22.00 (TDB)         Residual RMS= .26452        
   EC= .1121398051021756   QR= 2.654684198538492   TP= 2458216.3309690165      
   OM= 272.3543882577269   W=  125.6532575673136   IN= 8.966580314318207       
  Equivalent ICRF heliocentric cartesian coordinates (au, au/d):
   X= 1.761253448217681E+00  Y=-2.271407161209767E+00  Z=-6.988215919188829E-01
  VX= 7.207424167254240E-03 VY= 5.871268020444196E-03 VZ= 3.832805305877574E-03
Asteroid physical parameters (km, seconds, rotational period in hours):        
   GM= n.a.                RAD= 6.3385             ROTPER= n.a.                
   H= 12.59                G= .150                 B-V= n.a.                   
                           ALBEDO= .145            STYP= n.a.                  
*******************************************************************************
JDTDB
   X     Y     Z
   VX    VY    VZ
*******************************************************************************
$$SOE
2460168.500000000 = A.D. 2023-Aug-12 00:00:00.0000 TDB 
 X = 2.328089672621593E+08 Y = 3.205351403639514E+08 Z = 3.885632554569063E+07
 VX=-1.490657056569276E+01 VY= 1.186568669010692E+01 VZ=-2.280283943599315E+00
$$EOE
*******************************************************************************
 
TIME

  Barycentric Dynamical Time ("TDB" or T_eph) output was requested. This
continuous coordinate time is equivalent to the relativistic proper time
of a clock at rest in a reference frame co-moving with the solar system
barycenter but outside the system's gravity well. It is the independent
variable in the solar system relativistic equations of motion.

  TDB runs at a uniform rate of one SI second per second and is independent
of irregularities in Earth's rotation.
 
CALENDAR SYSTEM

  Mixed calendar mode was active such that calendar dates after AD 1582-Oct-15
(if any) are in the modern Gregorian system. Dates prior to 1582-Oct-5 (if any)
are in the Julian calendar system, which is automatically extended for dates
prior to its adoption on 45-Jan-1 BC.  The Julian calendar is useful for
matching historical dates. The Gregorian calendar more accurately corresponds
to the Earth's orbital motion and seasons. A "Gregorian-only" calendar mode is
available if such physical events are the primary interest.

REFERENCE FRAME AND COORDINATES

  Ecliptic at the standard reference epoch

    Reference epoch: J2000.0
    X-Y plane: adopted Earth orbital plane at the reference epoch
               Note: IAU76 obliquity of 84381.448 arcseconds wrt ICRF X-Y plane
    X-axis   : ICRF
    Z-axis   : perpendicular to the X-Y plane in the directional (+ or -) sense
               of Earth's north pole at the reference epoch.

  Symbol meaning:

    JDTDB    Julian Day Number, Barycentric Dynamical Time
      X      X-component of position vector (km)
      Y      Y-component of position vector (km)
      Z      Z-component of position vector (km)
      VX     X-component of velocity vector (km/sec)                           
      VY     Y-component of velocity vector (km/sec)                           
      VZ     Z-component of velocity vector (km/sec)                           

ABERRATIONS AND CORRECTIONS

 Geometric state vectors have NO corrections or aberrations applied.

Computations by ...

    Solar System Dynamics Group, Horizons On-Line Ephemeris System
    4800 Oak Grove Drive, Jet Propulsion Laboratory
    Pasadena, CA  91109   USA

    General site: https://ssd.jpl.nasa.gov/
    Mailing list: https://ssd.jpl.nasa.gov/email_list.html
    System news : https://ssd.jpl.nasa.gov/horizons/news.html
    User Guide  : https://ssd.jpl.nasa.gov/horizons/manual.html
    Connect     : browser        https://ssd.jpl.nasa.gov/horizons/app.html#/x
                  API            https://ssd-api.jpl.nasa.gov/doc/horizons.html
                  command-line   telnet ssd.jpl.nasa.gov 6775
                  e-mail/batch   https://ssd.jpl.nasa.gov/ftp/ssd/hrzn_batch.txt
                  scripts        https://ssd.jpl.nasa.gov/ftp/ssd/SCRIPTS
    Author      : Jon.D.Giorgini@jpl.nasa.gov
*******************************************************************************
